BEIDOU-2 IGSO-1 (C06)   
1 36828U 10036A   26064.71564830 -.00000126  00000+0  00000+0 0  9997
2 36828  54.2927 163.8986 0054017 218.9744 143.1840  1.00252203 57065
BEIDOU-2 G4 (C04)       
1 37210U 10057A   26066.22578551 -.00000114  00000+0  00000+0 0  9996
2 37210   3.3937  69.5370 0008734 212.0365 124.6573  1.00272401 56265
BEIDOU-2 IGSO-2 (C07)   
1 37256U 10068A   26063.55016868 -.00000178  00000+0  00000+0 0  9999
2 37256  47.7317 273.1244 0047330 213.1251 341.1802  1.00258965 55745
BEIDOU-2 IGSO-3 (C08)   
1 37384U 11013A   26058.90884667 -.00000154  00000+0  00000+0 0  9999
2 37384  62.2642  41.1818 0035029 190.8154 358.7681  1.00294022 54567
BEIDOU-2 IGSO-4 (C09)   
1 37763U 11038A   26064.72437745 -.00000100  00000+0  00000+0 0  9996
2 37763  54.5899 166.6081 0154581 230.9953 121.0281  1.00265577 53603
BEIDOU-2 IGSO-5 (C10)   
1 37948U 11073A   26063.54783174 -.00000153  00000+0  00000+0 0  9997
2 37948  47.8676 272.8369 0108588 221.1171 320.7210  1.00272598 52087
BEIDOU-2 G5 (C05)       
1 38091U 12008A   26066.16374906  .00000055  00000+0  00000+0 0  9996
2 38091   3.3193  70.3003 0014040 254.6740 317.6688  1.00267855 51348
BEIDOU-2 M3 (C11)       
1 38250U 12018A   26064.01894681 -.00000067  00000+0  00000+0 0  9997
2 38250  55.8459 308.3876 0021147 279.6506  80.1690  1.86229821 94007
BEIDOU-2 M4 (C12)       
1 38251U 12018B   26065.02500567 -.00000069  00000+0  00000+0 0  9999
2 38251  55.7456 307.5760 0012630 286.4840  73.4334  1.86229543 94024
BEIDOU-2 M6 (C14)       
1 38775U 12050B   26065.27214328 -.00000035  00000+0  00000+0 0  9993
2 38775  56.4548  66.2956 0013996 341.9106  18.0562  1.86231015 91391
BEIDOU-2 G6 (C02)       
1 38953U 12059A   26066.09736209 -.00000176  00000+0  00000+0 0  9994
2 38953   4.1630  74.6201 0010745 304.6741 264.5150  1.00269187 48881
BEIDOU-3S IGSO-1S (C31) 
1 40549U 15019A   26065.60071583 -.00000164  00000+0  00000+0 0  9997
2 40549  49.3862 296.6971 0035764 190.6092 349.7460  1.00273571 40045
BEIDOU-3S M2S (C58)     
1 40748U 15037A   26064.15514271 -.00000065  00000+0  00000+0 0  9993
2 40748  54.9621 305.6294 0008821 278.3568  81.6004  1.86231809 72184
BEIDOU-3S M1S (C57)     
1 40749U 15037B   26061.69084880 -.00000053  00000+0  00000+0 0  9995
2 40749  54.9610 305.7025 0004647  29.9008 330.1863  1.86253746 72142
BEIDOU-2 IGSO-6 (C13)   
1 41434U 16021A   26065.88576131 -.00000149  00000+0  00000+0 0  9997
2 41434  60.0901  39.0533 0059781 233.3750 306.7860  1.00278256 36459
BEIDOU-2 G7 (C03)       
1 41586U 16037A   26066.03132181 -.00000355  00000+0  00000+0 0  9992
2 41586   1.4681  68.2517 0007926 342.9061 235.3173  1.00266382  5865
BEIDOU-3 M1 (C19)       
1 43001U 17069A   26063.96368704 -.00000029  00000+0  00000+0 0  9991
2 43001  56.6017  66.5157 0012381 309.6653  50.2473  1.86231070 56664
